{
  "type": "FeatureCollection",
  "features": [
    {
      "type": "Feature",
      "properties": {
        "norad_id": 39591,
        "name": "COSMOS 2251 DEB",
        "group": "cosmos-2251-debris",
        "lat": -46.532587099525934,
        "lon": 78.69753469631965,
        "alt_km": 770.6833015914299,
        "timestamp": "2025-12-15T19:00:45.757076+00:00",
        "meta_object_name": "COSMOS 2251 DEB",
        "meta_object_id": "1993-036BUW",
        "meta_epoch": "2025-12-14T02:17:56.256000",
        "meta_mean_motion": 14.4181661,
        "meta_eccentricity": 0.00292248,
        "meta_inclination": 74.0214,
        "meta_ra_of_asc_node": 244.2482,
        "meta_arg_of_pericenter": 357.0219,
        "meta_mean_anomaly": 70.474,
        "meta_ephemeris_type": 0,
        "meta_classification_type": "U",
        "meta_norad_cat_id": 39591,
        "meta_element_set_no": 999,
        "meta_rev_at_epoch": 61796,
        "meta_bstar": 0.00040583296,
        "meta_mean_motion_dot": 1.307e-05,
        "meta_mean_motion_ddot": 0,
        "tle_line1": "1 39591U 93036BUW 25348.09579000  .00001307  00000+0  40583-3 0  9993",
        "tle_line2": "2 39591  74.0214 244.2482 0029224 357.0219  70.4740 14.41816610617962"
      },
      "geometry": {
        "type": "Point",
        "coordinates": [
          78.69753469631965,
          -46.532587099525934
        ]
      }
    },
    {
      "type": "Feature",
      "properties": {
        "norad_id": 40218,
        "name": "COSMOS 2251 DEB",
        "group": "cosmos-2251-debris",
        "lat": 55.37425984502251,
        "lon": 38.669034976220296,
        "alt_km": 758.5141869042891,
        "timestamp": "2025-12-15T19:00:45.757086+00:00",
        "meta_object_name": "COSMOS 2251 DEB",
        "meta_object_id": "1993-036BUX",
        "meta_epoch": "2025-12-14T10:48:31.251744",
        "meta_mean_motion": 14.41597705,
        "meta_eccentricity": 0.00168728,
        "meta_inclination": 74.0298,
        "meta_ra_of_asc_node": 245.6562,
        "meta_arg_of_pericenter": 328.6,
        "meta_mean_anomaly": 31.4147,
        "meta_ephemeris_type": 0,
        "meta_classification_type": "U",
        "meta_norad_cat_id": 40218,
        "meta_element_set_no": 999,
        "meta_rev_at_epoch": 58886,
        "meta_bstar": 0.00046023204,
        "meta_mean_motion_dot": 1.474e-05,
        "meta_mean_motion_ddot": 0,
        "tle_line1": "1 40218U 93036BUX 25348.45036171  .00001474  00000+0  46023-3 0  9998",
        "tle_line2": "2 40218  74.0298 245.6562 0016872 328.6000  31.4147 14.41597705588868"
      },
      "geometry": {
        "type": "Point",
        "coordinates": [
          38.669034976220296,
          55.37425984502251
        ]
      }
    },
    {
      "type": "Feature",
      "properties": {
        "norad_id": 40223,
        "name": "COSMOS 2251 DEB",
        "group": "cosmos-2251-debris",
        "lat": 50.47447226031444,
        "lon": 102.86435193898495,
        "alt_km": 555.9091735481634,
        "timestamp": "2025-12-15T19:00:45.757096+00:00",
        "meta_object_name": "COSMOS 2251 DEB",
        "meta_object_id": "1993-036BVC",
        "meta_epoch": "2025-12-14T00:26:13.435584",
        "meta_mean_motion": 15.03818233,
        "meta_eccentricity": 0.00153317,
        "meta_inclination": 73.9371,
        "meta_ra_of_asc_node": 86.0727,
        "meta_arg_of_pericenter": 290.315,
        "meta_mean_anomaly": 242.4766,
        "meta_ephemeris_type": 0,
        "meta_classification_type": "U",
        "meta_norad_cat_id": 40223,
        "meta_element_set_no": 999,
        "meta_rev_at_epoch": 59393,
        "meta_bstar": 0.0044494793,
        "meta_mean_motion_dot": 0.00061853,
        "meta_mean_motion_ddot": 0,
        "tle_line1": "1 40223U 93036BVC 25348.01821106  .00061853  00000+0  44495-2 0  9993",
        "tle_line2": "2 40223  73.9371  86.0727 0015331 290.3150 242.4766 15.03818233593930"
      },
      "geometry": {
        "type": "Point",
        "coordinates": [
          102.86435193898495,
          50.47447226031444
        ]
      }
    },
    {
      "type": "Feature",
      "properties": {
        "norad_id": 40228,
        "name": "COSMOS 2251 DEB",
        "group": "cosmos-2251-debris",
        "lat": 4.478323723280561,
        "lon": -103.8292090170458,
        "alt_km": 745.9906222355185,
        "timestamp": "2025-12-15T19:00:45.757107+00:00",
        "meta_object_name": "COSMOS 2251 DEB",
        "meta_object_id": "1993-036BVH",
        "meta_epoch": "2025-12-11T12:30:37.061856",
        "meta_mean_motion": 14.40990348,
        "meta_eccentricity": 0.00239974,
        "meta_inclination": 74.0549,
        "meta_ra_of_asc_node": 262.7798,
        "meta_arg_of_pericenter": 324.5031,
        "meta_mean_anomaly": 213.1591,
        "meta_ephemeris_type": 0,
        "meta_classification_type": "U",
        "meta_norad_cat_id": 40228,
        "meta_element_set_no": 999,
        "meta_rev_at_epoch": 58903,
        "meta_bstar": 0.00055464719,
        "meta_mean_motion_dot": 1.762e-05,
        "meta_mean_motion_ddot": 0,
        "tle_line1": "1 40228U 93036BVH 25345.52126229  .00001762  00000+0  55465-3 0  9998",
        "tle_line2": "2 40228  74.0549 262.7798 0023997 324.5031 213.1591 14.40990348589035"
      },
      "geometry": {
        "type": "Point",
        "coordinates": [
          -103.8292090170458,
          4.478323723280561
        ]
      }
    },
    {
      "type": "Feature",
      "properties": {
        "norad_id": 40230,
        "name": "COSMOS 2251 DEB",
        "group": "cosmos-2251-debris",
        "lat": -70.48673932882402,
        "lon": 95.00691589128685,
        "alt_km": 721.9466946607645,
        "timestamp": "2025-12-15T19:00:45.757117+00:00",
        "meta_object_name": "COSMOS 2251 DEB",
        "meta_object_id": "1993-036BVK",
        "meta_epoch": "2025-12-14T22:00:49.266432",
        "meta_mean_motion": 14.49332961,
        "meta_eccentricity": 0.00191764,
        "meta_inclination": 74.0428,
        "meta_ra_of_asc_node": 222.8045,
        "meta_arg_of_pericenter": 280.5439,
        "meta_mean_anomaly": 94.8076,
        "meta_ephemeris_type": 0,
        "meta_classification_type": "U",
        "meta_norad_cat_id": 40230,
        "meta_element_set_no": 999,
        "meta_rev_at_epoch": 59003,
        "meta_bstar": 0.00050113522,
        "meta_mean_motion_dot": 1.891e-05,
        "meta_mean_motion_ddot": 0,
        "tle_line1": "1 40230U 93036BVK 25348.91723688  .00001891  00000+0  50114-3 0  9998",
        "tle_line2": "2 40230  74.0428 222.8045 0019176 280.5439  94.8076 14.49332961590037"
      },
      "geometry": {
        "type": "Point",
        "coordinates": [
          95.00691589128685,
          -70.48673932882402
        ]
      }
    },
    {
      "type": "Feature",
      "properties": {
        "norad_id": 40233,
        "name": "COSMOS 2251 DEB",
        "group": "cosmos-2251-debris",
        "lat": -2.5854750469329013,
        "lon": -81.99065642384342,
        "alt_km": 669.6486787333452,
        "timestamp": "2025-12-15T19:00:45.757127+00:00",
        "meta_object_name": "COSMOS 2251 DEB",
        "meta_object_id": "1993-036BVN",
        "meta_epoch": "2025-12-12T17:44:37.201344",
        "meta_mean_motion": 14.58419195,
        "meta_eccentricity": 0.00452349,
        "meta_inclination": 73.9396,
        "meta_ra_of_asc_node": 103.1069,
        "meta_arg_of_pericenter": 178.0114,
        "meta_mean_anomaly": 182.1239,
        "meta_ephemeris_type": 0,
        "meta_classification_type": "U",
        "meta_norad_cat_id": 40233,
        "meta_element_set_no": 999,
        "meta_rev_at_epoch": 59137,
        "meta_bstar": 0.0020636602,
        "meta_mean_motion_dot": 9.688e-05,
        "meta_mean_motion_ddot": 0,
        "tle_line1": "1 40233U 93036BVN 25346.73931946  .00009688  00000+0  20637-2 0  9995",
        "tle_line2": "2 40233  73.9396 103.1069 0045234 178.0114 182.1239 14.58419195591379"
      },
      "geometry": {
        "type": "Point",
        "coordinates": [
          -81.99065642384342,
          -2.5854750469329013
        ]
      }
    },
    {
      "type": "Feature",
      "properties": {
        "norad_id": 40236,
        "name": "COSMOS 2251 DEB",
        "group": "cosmos-2251-debris",
        "lat": -24.528858554572484,
        "lon": -33.29849350176354,
        "alt_km": 1573.9179255474537,
        "timestamp": "2025-12-15T19:00:45.757138+00:00",
        "meta_object_name": "COSMOS 2251 DEB",
        "meta_object_id": "1993-036BVR",
        "meta_epoch": "2025-12-07T17:52:23.026080",
        "meta_mean_motion": 13.24639967,
        "meta_eccentricity": 0.05366128,
        "meta_inclination": 73.5349,
        "meta_ra_of_asc_node": 151.6266,
        "meta_arg_of_pericenter": 32.3576,
        "meta_mean_anomaly": 330.9258,
        "meta_ephemeris_type": 0,
        "meta_classification_type": "U",
        "meta_norad_cat_id": 40236,
        "meta_element_set_no": 999,
        "meta_rev_at_epoch": 53558,
        "meta_bstar": 0.0015786255,
        "meta_mean_motion_dot": 1.455e-05,
        "meta_mean_motion_ddot": 0,
        "tle_line1": "1 40236U 93036BVR 25341.74471095  .00001455  00000+0  15786-2 0  9991",
        "tle_line2": "2 40236  73.5349 151.6266 0536612  32.3576 330.9258 13.24639967535580"
      },
      "geometry": {
        "type": "Point",
        "coordinates": [
          -33.29849350176354,
          -24.528858554572484
        ]
      }
    }
  ]
}